STARLINK-34180          
1 64081U 25107T   26068.39087050  .00026062  00000+0  95283-3 0  9993
2 64081  42.9963 203.3296 0000261 129.6772 230.4103 15.27594644 46079
2025-313BC              
1 67298U 25313BC  26068.18968176  .00075331  00000+0  26410-2 0  9997
2 67298  97.3985 144.8110 0008478 328.9209  31.1528 15.29126358  7890
